{
  "norad_id": 62515,
  "name": "STARLINK-11508 [DTC]",
  "history": [
    {
      "epoch": "2026-03-28T21:52:58.536768Z",
      "apogee_km": 357.4856028534241,
      "perigee_km": 355.142148637683,
      "latitude_deg": -3.6874547391582284e-05,
      "longitude_deg": 160.1198216748222,
      "height_km": 356.7154177890334,
      "semi_major_axis_km": 6734.450875745553,
      "eccentricity": 0.00017399,
      "inclination_deg": 42.9998,
      "raan_deg": 314.6892,
      "arg_perigee_deg": 237.5239,
      "mean_anomaly_deg": 122.546,
      "mean_motion_rev_day": 15.70903394
    },
    {
      "epoch": "2026-03-28T23:24:31.883328Z",
      "apogee_km": 358.54906956617197,
      "perigee_km": 354.00064779681816,
      "latitude_deg": 2.64035215897607e-05,
      "longitude_deg": 136.7855774232051,
      "height_km": 356.3704615884885,
      "semi_major_axis_km": 6734.411858681495,
      "eccentricity": 0.0003377,
      "inclination_deg": 43.0016,
      "raan_deg": 314.3065,
      "arg_perigee_deg": 261.8687,
      "mean_anomaly_deg": 98.1798,
      "mean_motion_rev_day": 15.70917046
    },
    {
      "epoch": "2026-03-29T23:49:29.951328Z",
      "apogee_km": 356.9124457878979,
      "perigee_km": 355.9398401787894,
      "latitude_deg": 2.187961493374694e-05,
      "longitude_deg": 123.40768826829677,
      "height_km": 356.52642245139265,
      "semi_major_axis_km": 6734.563142983344,
      "eccentricity": 7.221e-05,
      "inclination_deg": 42.9985,
      "raan_deg": 308.1733,
      "arg_perigee_deg": 227.4541,
      "mean_anomaly_deg": 132.6266,
      "mean_motion_rev_day": 15.70864113
    },
    {
      "epoch": "2026-03-30T22:42:53.862336Z",
      "apogee_km": 358.0040457377436,
      "perigee_km": 354.7624517612103,
      "latitude_deg": -5.179133392463402e-05,
      "longitude_deg": 133.3696237258286,
      "height_km": 356.0217994964476,
      "semi_major_axis_km": 6734.520248749477,
      "eccentricity": 0.00024067,
      "inclination_deg": 43.0006,
      "raan_deg": 302.425,
      "arg_perigee_deg": 274.7689,
      "mean_anomaly_deg": 85.2903,
      "mean_motion_rev_day": 15.70879121
    },
    {
      "epoch": "2026-03-31T13:58:29.733312Z",
      "apogee_km": 357.1711320918075,
      "perigee_km": 354.9286478574468,
      "latitude_deg": 2.7349112268856892e-05,
      "longitude_deg": -99.99025786133534,
      "height_km": 356.25373227264123,
      "semi_major_axis_km": 6734.186889974627,
      "eccentricity": 0.0001665,
      "inclination_deg": 42.9974,
      "raan_deg": 298.5912,
      "arg_perigee_deg": 247.3573,
      "mean_anomaly_deg": 112.7119,
      "mean_motion_rev_day": 15.70995766
    },
    {
      "epoch": "2026-04-01T20:29:40.524000Z",
      "apogee_km": 357.5264219321516,
      "perigee_km": 354.998328406713,
      "latitude_deg": -4.850027693621413e-06,
      "longitude_deg": 153.29695017366782,
      "height_km": 356.1237519495728,
      "semi_major_axis_km": 6734.3993751694325,
      "eccentricity": 0.0001877,
      "inclination_deg": 42.9996,
      "raan_deg": 290.9268,
      "arg_perigee_deg": 265.9799,
      "mean_anomaly_deg": 94.0854,
      "mean_motion_rev_day": 15.70921414
    },
    {
      "epoch": "2026-04-02T05:39:02.024640Z",
      "apogee_km": 357.7892820116949,
      "perigee_km": 354.71072433706377,
      "latitude_deg": -4.416320964110275e-05,
      "longitude_deg": 13.279800167409144,
      "height_km": 355.3905895851232,
      "semi_major_axis_km": 6734.387003174379,
      "eccentricity": 0.00022857,
      "inclination_deg": 42.9974,
      "raan_deg": 288.6253,
      "arg_perigee_deg": 294.2492,
      "mean_anomaly_deg": 65.8136,
      "mean_motion_rev_day": 15.70925743
    },
    {
      "epoch": "2026-04-02T22:26:11.039136Z",
      "apogee_km": 357.76453105438486,
      "perigee_km": 353.7951564316718,
      "latitude_deg": -1.6440504736733215e-05,
      "longitude_deg": 116.58769997668983,
      "height_km": 356.1027570634997,
      "semi_major_axis_km": 6733.916843743028,
      "eccentricity": 0.00029473,
      "inclination_deg": 42.999,
      "raan_deg": 284.4101,
      "arg_perigee_deg": 253.9226,
      "mean_anomaly_deg": 106.1317,
      "mean_motion_rev_day": 15.71090268
    },
    {
      "epoch": "2026-04-03T13:41:47.997888Z",
      "apogee_km": 358.2110029803489,
      "perigee_km": 355.3957978929666,
      "latitude_deg": 2.3400672119443952e-05,
      "longitude_deg": -116.77216920378717,
      "height_km": 355.659133353233,
      "semi_major_axis_km": 6734.940400436658,
      "eccentricity": 0.000209,
      "inclination_deg": 42.9998,
      "raan_deg": 280.5809,
      "arg_perigee_deg": 310.6512,
      "mean_anomaly_deg": 49.4174,
      "mean_motion_rev_day": 15.70732127
    },
    {
      "epoch": "2026-04-04T20:13:01.022016Z",
      "apogee_km": 357.21404955030266,
      "perigee_km": 355.6785645562959,
      "latitude_deg": 1.5226476718865778e-06,
      "longitude_deg": 136.502715888435,
      "height_km": 355.7741592063794,
      "semi_major_axis_km": 6734.583307053299,
      "eccentricity": 0.000114,
      "inclination_deg": 43.0006,
      "raan_deg": 272.9135,
      "arg_perigee_deg": 305.3617,
      "mean_anomaly_deg": 54.7144,
      "mean_motion_rev_day": 15.70857058
    },
    {
      "epoch": "2026-04-05T13:00:10.002816Z",
      "apogee_km": 358.7306569845905,
      "perigee_km": 353.8601807706109,
      "latitude_deg": -4.187320703398721e-05,
      "longitude_deg": -120.19112096867697,
      "height_km": 355.52497037558663,
      "semi_major_axis_km": 6734.432418877601,
      "eccentricity": 0.00036161,
      "inclination_deg": 42.9989,
      "raan_deg": 268.6965,
      "arg_perigee_deg": 282.9155,
      "mean_anomaly_deg": 77.1308,
      "mean_motion_rev_day": 15.70909852
    },
    {
      "epoch": "2026-04-07T10:46:56.513280Z",
      "apogee_km": 357.7370494991155,
      "perigee_km": 354.35191115258476,
      "latitude_deg": -3.7789862322558185e-06,
      "longitude_deg": -100.26167936512368,
      "height_km": 355.9840587574164,
      "semi_major_axis_km": 6734.18148032585,
      "eccentricity": 0.00025134,
      "inclination_deg": 42.9998,
      "raan_deg": 257.1998,
      "arg_perigee_deg": 264.3594,
      "mean_anomaly_deg": 95.6987,
      "mean_motion_rev_day": 15.70997659
    },
    {
      "epoch": "2026-04-08T11:11:54.345408Z",
      "apogee_km": 358.0379672810268,
      "perigee_km": 354.7558248414416,
      "latitude_deg": -6.103672431054869e-08,
      "longitude_deg": -113.63697779380044,
      "height_km": 355.6103581252262,
      "semi_major_axis_km": 6734.5338960612335,
      "eccentricity": 0.00024368,
      "inclination_deg": 42.9999,
      "raan_deg": 251.0682,
      "arg_perigee_deg": 289.9428,
      "mean_anomaly_deg": 70.1177,
      "mean_motion_rev_day": 15.70874346
    },
    {
      "epoch": "2026-04-09T16:11:32.339904Z",
      "apogee_km": 357.4354786930653,
      "perigee_km": 354.4899834706903,
      "latitude_deg": -2.2509665248555486e-05,
      "longitude_deg": 162.97954761455156,
      "height_km": 356.534782807025,
      "semi_major_axis_km": 6734.0997310818775,
      "eccentricity": 0.0002187,
      "inclination_deg": 42.9986,
      "raan_deg": 243.7838,
      "arg_perigee_deg": 237.1191,
      "mean_anomaly_deg": 122.9466,
      "mean_motion_rev_day": 15.71026266
    },
    {
      "epoch": "2026-04-09T16:11:32.340768Z",
      "apogee_km": 357.4356133750589,
      "perigee_km": 354.4898487886958,
      "latitude_deg": -2.1178232489334827e-05,
      "longitude_deg": 162.97954542451504,
      "height_km": 356.5348559133608,
      "semi_major_axis_km": 6734.0997310818775,
      "eccentricity": 0.00021872,
      "inclination_deg": 42.9986,
      "raan_deg": 243.7838,
      "arg_perigee_deg": 237.1191,
      "mean_anomaly_deg": 122.9466,
      "mean_motion_rev_day": 15.71026266
    },
    {
      "epoch": "2026-04-11T18:33:01.012032Z",
      "apogee_km": 357.0555465319776,
      "perigee_km": 355.8500549576447,
      "latitude_deg": -2.894406674368153e-06,
      "longitude_deg": 112.896368684077,
      "height_km": 356.1393277001451,
      "semi_major_axis_km": 6734.58980074481,
      "eccentricity": 8.95e-05,
      "inclination_deg": 42.9994,
      "raan_deg": 231.1382,
      "arg_perigee_deg": 278.1471,
      "mean_anomaly_deg": 81.9295,
      "mean_motion_rev_day": 15.70854786
    },
    {
      "epoch": "2026-04-13T01:04:12.840384Z",
      "apogee_km": 357.4319973413403,
      "perigee_km": 355.4859684861176,
      "latitude_deg": -1.1345887603453579e-05,
      "longitude_deg": 6.17816413247714,
      "height_km": 356.2600815642327,
      "semi_major_axis_km": 6734.595982913729,
      "eccentricity": 0.00014448,
      "inclination_deg": 43.0036,
      "raan_deg": 223.4727,
      "arg_perigee_deg": 268.3386,
      "mean_anomaly_deg": 91.7316,
      "mean_motion_rev_day": 15.70852623
    },
    {
      "epoch": "2026-04-14T07:35:23.856576Z",
      "apogee_km": 357.4012814327207,
      "perigee_km": 355.0725349352706,
      "latitude_deg": 2.358934876079779e-05,
      "longitude_deg": -100.53879901320089,
      "height_km": 356.49531063875816,
      "semi_major_axis_km": 6734.373908183996,
      "eccentricity": 0.0001729,
      "inclination_deg": 42.9986,
      "raan_deg": 215.805,
      "arg_perigee_deg": 245.3269,
      "mean_anomaly_deg": 114.7419,
      "mean_motion_rev_day": 15.70930325
    },
    {
      "epoch": "2026-04-15T14:06:36.027072Z",
      "apogee_km": 359.0777867536308,
      "perigee_km": 353.8625069790978,
      "latitude_deg": -1.1871183821608267e-05,
      "longitude_deg": 152.74134117453343,
      "height_km": 355.1313236443477,
      "semi_major_axis_km": 6734.607146866364,
      "eccentricity": 0.0003872,
      "inclination_deg": 43.0015,
      "raan_deg": 208.1393,
      "arg_perigee_deg": 295.2674,
      "mean_anomaly_deg": 64.7792,
      "mean_motion_rev_day": 15.70848717
    }
  ]
}